YAMAL 202               
1 28089U 03053A   25194.87783139 -.00000075  00000+0  00000+0 0  9996
2 28089   5.4869  75.0737 0003447  55.5195 280.8863  1.00272011 79306
